0 IRIDIUM 33 DEB
1 34700U 97051KX  13282.51096541  .00028268  00000-0  51020-2 0  2521
2 34700 086.3969 116.1640 0053176 057.8224 332.1608 14.65407263241284
0 IRIDIUM 33 DEB
1 34700U 97051KX  13283.01219269  .00024741  00000-0  44665-2 0  2531
2 34700 086.3961 115.9436 0053083 056.1478 096.3371 14.65416075241362
0 IRIDIUM 33 DEB
1 34700U 97051KX  13283.52967138  .00038924  00000-0  70590-2 0  2558
2 34700 086.3889 115.7043 0052705 053.2355 307.4176 14.65420574241442
0 IRIDIUM 33 DEB
1 34700U 97051KX  13285.73954997  .00020448  00000-0  36852-2 0  2557
2 34700 086.3963 114.7451 0052905 047.0881 084.7354 14.65516035241760
0 IRIDIUM 33 DEB
1 34700U 97051KX  13286.76315639  .00020750  00000-0  37372-2 0  2560
2 34700 086.3956 114.2950 0052745 043.5789 085.2124 14.65549417241919
0 IRIDIUM 33 DEB
1 34700U 97051KX  13287.99663461  .00038136  00000-0  68464-2 0  2579
2 34700 086.3951 113.7531 0052759 039.4138 113.0831 14.65606544242090
0 IRIDIUM 33 DEB
1 34700U 97051KX  13289.47493532  .00029663  00000-0  53212-2 0  2585
2 34700 086.3952 113.1035 0052648 034.3619 353.1129 14.65689360242307
0 IRIDIUM 33 DEB
1 34700U 97051KX  13290.49932983  .00031393  00000-0  56258-2 0  2594
2 34700 086.3953 112.6530 0052467 030.9409 358.3084 14.65731882242450
0 IRIDIUM 33 DEB
1 34700U 97051KX  13291.52770418  .00026164  00000-0  46867-2 0  2609
2 34700 086.3954 112.2007 0052404 027.3633 024.8249 14.65780357242602
0 IRIDIUM 33 DEB
1 34700U 97051KX  13292.70358900  .00025442  00000-0  45526-2 0  2618
2 34700 086.3956 111.6834 0052353 023.2777 109.9264 14.65831116242783
0 IRIDIUM 33 DEB
1 34700U 97051KX  13294.53281424  .00030664  00000-0  54757-2 0  2626
2 34700 086.3959 110.8788 0052150 017.0682 042.9567 14.65905076243045
0 IRIDIUM 33 DEB
1 34700U 97051KX  13295.70520154  .00032153  00000-0  57337-2 0  2635
2 34700 086.3962 110.3635 0052100 012.9856 110.1535 14.65959480243228
